NORAD_CAT_ID,OBJECT_NAME,OBJECT_TYPE,EPOCH,MEAN_MOTION,ECCENTRICITY,INCLINATION,RA_OF_ASC_NODE,ARG_OF_PERICENTER,MEAN_ANOMALY,BSTAR,MEAN_MOTION_DOT,MEAN_MOTION_DDOT,TLE_LINE0,TLE_LINE1,TLE_LINE2,SEMIMAJOR_AXIS,PERIOD,APOGEE,PERIGEE,DECAYED
53624.0,STARLINK-4596,PAYLOAD,2024-04-26 12:25:38,15.08854219,0.0001374,53.2191,56.2615,84.5632,275.5517,7.1075e-05,8.44e-06,0.0,0 STARLINK-4596,1 53624U 22104AN  24117.51781193  .00000844  00000-0  71075-4 0  9999,2 53624  53.2191  56.2615 0001374  84.5632 275.5517 15.08854219 92085,6917.837,95.437,540.652,538.751,0.0
53624.0,STARLINK-4596,PAYLOAD,2024-04-27 01:08:45,15.0882126,0.000132,53.2174,53.8816,82.3152,277.799,-0.00030769,-5.179e-05,0.0,0 STARLINK-4596,1 53624U 22104AN  24118.04774723 -.00005179  00000-0 -30769-3 0  9991,2 53624  53.2174  53.8816 0001320  82.3152 277.7990 15.08821260 92164,6917.938,95.439,540.716,538.89,0.0
53624.0,STARLINK-4596,PAYLOAD,2024-04-27 12:16:26,15.08830803,0.0001262,53.2174,51.8046,79.9706,280.1428,-0.00018637,-3.252e-05,0.0,0 STARLINK-4596,1 53624U 22104AN  24118.51142357 -.00003252  00000-0 -18637-3 0  9995,2 53624  53.2174  51.8046 0001262  79.9706 280.1428 15.08830803 92234,6917.909,95.438,540.647,538.9,0.0
53624.0,STARLINK-4596,PAYLOAD,2024-04-27 20:13:22,15.08829714,0.0001239,53.2176,50.3197,98.5016,261.6116,-0.00027781,-4.705e-05,0.0,0 STARLINK-4596,1 53624U 22104AN  24118.84262719 -.00004705  00000-0 -27781-3 0  9990,2 53624  53.2176  50.3197 0001239  98.5016 261.6116 15.08829714 92969,6917.912,95.438,540.634,538.92,0.0
53624.0,STARLINK-4596,PAYLOAD,2024-04-28 04:10:18,15.08842214,0.0001412,53.2186,48.8351,104.7431,255.3718,-5.043e-05,-1.09e-05,0.0,0 STARLINK-4596,1 53624U 22104AN  24119.17382313 -.00001090  00000-0 -50430-4 0  9992,2 53624  53.2186  48.8351 0001412 104.7431 255.3718 15.08842214 92337,6917.874,95.437,540.715,538.762,0.0
53624.0,STARLINK-4596,PAYLOAD,2024-04-28 12:07:14,15.08840826,0.0001137,53.2166,47.3442,68.4498,291.6615,5.9146e-06,-1.94e-06,0.0,0 STARLINK-4596,1 53624U 22104AN  24119.50502345 -.00000194  00000-0  59146-5 0  9995,2 53624  53.2166  47.3442 0001137  68.4498 291.6615 15.08840826 93060,6917.878,95.438,540.529,538.956,0.0
53624.0,STARLINK-4596,PAYLOAD,2024-04-29 04:01:06,15.08829547,0.0001596,53.2197,44.3747,88.9131,271.2044,0.00030681,4.597e-05,0.0,0 STARLINK-4596,1 53624U 22104AN  24120.16743357  .00004597  00000-0  30681-3 0  9990,2 53624  53.2197  44.3747 0001596  88.9131 271.2044 15.08829547 92481,6917.912,95.438,540.881,538.673,0.0
53624.0,STARLINK-4596,PAYLOAD,2024-04-29 11:58:02,15.08831244,0.0001492,53.2187,42.889,94.9304,265.1859,0.00017313,2.468e-05,0.0,0 STARLINK-4596,1 53624U 22104AN  24120.49863515  .00002468  00000-0  17313-3 0  9997,2 53624  53.2187  42.8890 0001492  94.9304 265.1859 15.08831244 93211,6917.907,95.438,540.804,538.74,0.0
53624.0,STARLINK-4596,PAYLOAD,2024-04-29 23:05:43,15.08835109,0.0001489,53.2191,40.8046,88.6669,271.4493,0.00016923,2.406e-05,0.0,0 STARLINK-4596,1 53624U 22104AN  24120.96231475  .00002406  00000-0  16923-3 0  9991,2 53624  53.2191  40.8046 0001489  88.6669 271.4493 15.08835109 93282,6917.895,95.438,540.79,538.73,0.0
53624.0,STARLINK-4596,PAYLOAD,2024-04-30 03:51:52,15.0884624,0.000137,53.2185,39.9112,86.169,273.9459,0.0001399,1.94e-05,0.0,0 STARLINK-4596,1 53624U 22104AN  24121.16102836  .00001940  00000-0  13990-3 0  9995,2 53624  53.2185  39.9112 0001370  86.1690 273.9459 15.08846240 92639,6917.861,95.437,540.674,538.779,0.0
53624.0,STARLINK-4596,PAYLOAD,2024-04-30 11:48:48,15.08843467,0.0001413,53.2184,38.426,85.011,275.1043,7.301e-05,8.74e-06,0.0,0 STARLINK-4596,1 53624U 22104AN  24121.49223202  .00000874  00000-0  73010-4 0  9997,2 53624  53.2184  38.4260 0001413  85.0110 275.1043 15.08843467 93361,6917.87,95.437,540.712,538.757,0.0
53624.0,STARLINK-4596,PAYLOAD,2024-04-30 22:56:30,15.08838922,0.0001452,53.2185,36.3423,85.6063,274.5095,0.00013396,1.845e-05,0.0,0 STARLINK-4596,1 53624U 22104AN  24121.95591390  .00001845  00000-0  13396-3 0  9993,2 53624  53.2185  36.3423 0001452  85.6063 274.5095 15.08838922 93434,6917.884,95.438,540.753,538.744,0.0
53624.0,STARLINK-4596,PAYLOAD,2024-05-01 11:39:35,15.0885114,0.0001303,53.2182,33.9639,92.3182,267.7959,8.8056e-05,1.114e-05,0.0,0 STARLINK-4596,1 53624U 22104AN  24122.48582473  .00001114  00000-0  88056-4 0  9999,2 53624  53.2182  33.9639 0001303  92.3182 267.7959 15.08851140 93514,6917.846,95.437,540.613,538.81,0.0
53624.0,STARLINK-4596,PAYLOAD,2024-05-02 03:33:26,15.08854972,0.0001457,53.2194,30.9895,95.347,264.7689,9.273e-05,1.189e-05,0.0,0 STARLINK-4596,1 53624U 22104AN  24123.14822017  .00001189  00000-0  92730-4 0  9990,2 53624  53.2194  30.9895 0001457  95.3470 264.7689 15.08854972 92939,6917.835,95.437,540.708,538.692,0.0
53624.0,STARLINK-4596,PAYLOAD,2024-05-02 21:02:41,15.08842817,0.0001513,53.218,27.7187,105.0481,255.0679,7.2488e-05,8.66e-06,0.0,0 STARLINK-4596,1 53624U 22104AN  24123.87686583  .00000866  00000-0  72488-4 0  9995,2 53624  53.2180  27.7187 0001513 105.0481 255.0679 15.08842817 93046,6917.872,95.437,540.783,538.69,0.0
53624.0,STARLINK-4596,PAYLOAD,2024-05-03 03:24:13,15.08853722,0.0001326,53.2182,26.5293,89.0606,271.0538,9.2225e-05,1.181e-05,0.0,0 STARLINK-4596,1 53624U 22104AN  24124.14181877  .00001181  00000-0  92225-4 0  9994,2 53624  53.2182  26.5293 0001326  89.0606 271.0538 15.08853722 93088,6917.838,95.437,540.621,538.786,0.0
53624.0,STARLINK-4596,PAYLOAD,2024-05-03 20:53:28,15.08839946,0.0001342,53.2181,23.2599,97.9382,262.1763,-3.8106e-05,-8.94e-06,0.0,0 STARLINK-4596,1 53624U 22104AN  24124.87046457 -.00000894  00000-0 -38106-4 0  9998,2 53624  53.2181  23.2599 0001342  97.9382 262.1763 15.08839946 93192,6917.881,95.438,540.674,538.817,0.0
53624.0,STARLINK-4596,PAYLOAD,2024-05-03 22:28:51,15.08843053,0.0001301,53.2171,22.9635,89.6826,270.4315,-1.8329e-06,-3.17e-06,0.0,0 STARLINK-4596,1 53624U 22104AN  24124.93670409 -.00000317  00000-0 -18329-5 0  9991,2 53624  53.2171  22.9635 0001301  89.6826 270.4315 15.08843053 93889,6917.871,95.437,540.636,538.836,0.0
53624.0,STARLINK-4596,PAYLOAD,2024-05-04 20:44:15,15.08829657,0.0001254,53.2169,18.8005,93.2419,266.8717,-8.4852e-05,-1.638e-05,0.0,0 STARLINK-4596,1 53624U 22104AN  24125.86407285 -.00001638  00000-0 -84852-4 0  9994,2 53624  53.2169  18.8005 0001254  93.2419 266.8717 15.08829657 93347,6917.912,95.438,540.645,538.909,0.0
53624.0,STARLINK-4596,PAYLOAD,2024-05-04 23:55:02,15.08831244,0.0001152,53.2172,18.2093,93.2057,266.9067,4.7529e-05,4.69e-06,0.0,0 STARLINK-4596,1 53624U 22104AN  24125.99655584  .00000469  00000-0  47529-4 0  9994,2 53624  53.2172  18.2093 0001152  93.2057 266.9067 15.08831244 94049,6917.907,95.438,540.569,538.975,0.0
53624.0,STARLINK-4596,PAYLOAD,2024-05-05 20:35:02,15.08841793,0.0001292,53.2174,14.3417,114.6772,245.4354,0.00012039,1.629e-05,0.0,0 STARLINK-4596,1 53624U 22104AN  24126.85766988  .00001629  00000-0  12039-3 0  9997,2 53624  53.2174  14.3417 0001292 114.6772 245.4354 15.08841793 93494,6917.875,95.437,540.634,538.846,0.0
53624.0,STARLINK-4596,PAYLOAD,2024-05-05 22:10:25,15.08841905,0.0001591,53.2174,14.0444,126.3856,233.7284,0.00015409,2.165e-05,0.0,0 STARLINK-4596,1 53624U 22104AN  24126.92390885  .00002165  00000-0  15409-3 0  9994,2 53624  53.2174  14.0444 0001591 126.3856 233.7284 15.08841905 94180,6917.875,95.437,540.84,538.639,0.0
53624.0,STARLINK-4596,PAYLOAD,2024-05-06 09:18:07,15.08850801,0.0001126,53.217,11.9619,87.4861,272.626,0.00025178,3.723e-05,0.0,0 STARLINK-4596,1 53624U 22104AN  24127.38758584  .00003723  00000-0  25178-3 0  9994,2 53624  53.2170  11.9619 0001126  87.4861 272.6260 15.08850801 94252,6917.847,95.437,540.491,538.933,0.0
53624.0,STARLINK-4596,PAYLOAD,2024-05-06 22:01:12,15.0884548,0.0001304,53.2183,9.5828,82.3579,277.7561,0.00018204,2.611e-05,0.0,0 STARLINK-4596,1 53624U 22104AN  24127.91750893  .00002611  00000-0  18204-3 0  9995,2 53624  53.2183   9.5828 0001304  82.3579 277.7561 15.08845480 94335,6917.864,95.437,540.631,538.827,0.0
53624.0,STARLINK-4596,PAYLOAD,2024-05-07 01:11:58,15.08851265,0.0001517,53.2193,8.9873,78.7103,281.406,0.00024273,3.578e-05,0.0,0 STARLINK-4596,1 53624U 22104AN  24128.04998595  .00003578  00000-0  24273-3 0  9999,2 53624  53.2193   8.9873 0001517  78.7103 281.4060 15.08851265 93677,6917.846,95.437,540.76,538.662,0.0
53624.0,STARLINK-4596,PAYLOAD,2024-05-07 09:08:54,15.08839887,0.0001329,53.2184,7.5012,87.5725,272.5419,6.2475e-05,7.07e-06,0.0,0 STARLINK-4596,1 53624U 22104AN  24128.38119134  .00000707  00000-0  62475-4 0  9998,2 53624  53.2184   7.5012 0001329  87.5725 272.5419 15.08839887 93727,6917.881,95.438,540.665,538.826,0.0
53624.0,STARLINK-4596,PAYLOAD,2024-05-07 20:16:37,15.08832562,0.0001164,53.2182,5.4194,90.3321,269.7804,-0.00014552,-2.603e-05,0.0,0 STARLINK-4596,1 53624U 22104AN  24128.84487544 -.00002603  00000-0 -14552-3 0  9993,2 53624  53.2182   5.4194 0001164  90.3321 269.7804 15.08832562 93790,6917.903,95.438,540.573,538.963,0.0
53624.0,STARLINK-4596,PAYLOAD,2024-05-07 21:52:00,15.08833376,0.0001429,53.2186,5.1218,87.7379,272.3777,-0.0001339,-2.418e-05,0.0,0 STARLINK-4596,1 53624U 22104AN  24128.91111583 -.00002418  00000-0 -13390-3 0  9991,2 53624  53.2186   5.1218 0001429  87.7379 272.3777 15.08833376 94485,6917.901,95.438,540.754,538.777,0.0
53624.0,STARLINK-4596,PAYLOAD,2024-05-08 08:59:42,15.08838383,0.0001225,53.2183,3.0399,89.6019,270.5114,-9.596e-06,-4.41e-06,0.0,0 STARLINK-4596,1 53624U 22104AN  24129.37479410 -.00000441  00000-0 -95960-5 0  9997,2 53624  53.2183   3.0399 0001225  89.6019 270.5114 15.08838383 94551,6917.885,95.438,540.598,538.903,0.0
53624.0,STARLINK-4596,PAYLOAD,2024-05-08 21:42:46,15.08847113,0.0001206,53.2184,0.6597,89.691,270.4221,0.00011098,1.479e-05,0.0,0 STARLINK-4596,1 53624U 22104AN  24129.90470821  .00001479  00000-0  11098-3 0  9991,2 53624  53.2184   0.6597 0001206  89.6910 270.4221 15.08847113 93956,6917.859,95.437,540.558,538.889,0.0
